{
"type": "FeatureCollection",
"name": "nagpur_grid",
"crs": { "type": "name", "properties": { "name": "urn:ogc:def:crs:OGC:1.3:CRS84" } },
"features": [
{ "type": "Feature", "properties": { "cell_id": "C0485" }, "geometry": { "type": "Polygon", "coordinates": [ [ [ 78.969, 21.02 ], [ 78.969, 21.029 ], [ 78.96, 21.029 ], [ 78.96, 21.02 ], [ 78.969, 21.02 ] ] ] } },
{ "type": "Feature", "properties": { "cell_id": "C0465" }, "geometry": { "type": "Polygon", "coordinates": [ [ [ 78.969, 21.029 ], [ 78.969, 21.038 ], [ 78.96, 21.038 ], [ 78.96, 21.029 ], [ 78.969, 21.029 ] ] ] } },
{ "type": "Feature", "properties": { "cell_id": "C0466" }, "geometry": { "type": "Polygon", "coordinates": [ [ [ 78.969, 21.038 ], [ 78.969, 21.047 ], [ 78.96, 21.047 ], [ 78.96, 21.038 ], [ 78.969, 21.038 ] ] ] } },
{ "type": "Feature", "properties": { "cell_id": "C0486" }, "geometry": { "type": "Polygon", "coordinates": [ [ [ 78.969, 21.047 ], [ 78.969, 21.056 ], [ 78.96, 21.056 ], [ 78.96, 21.047 ], [ 78.969, 21.047 ] ] ] } },
{ "type": "Feature", "properties": { "cell_id": "C0507" }, "geometry": { "type": "Polygon", "coordinates": [ [ [ 78.969, 21.056 ], [ 78.969, 21.065 ], [ 78.96, 21.065 ], [ 78.96, 21.056 ], [ 78.969, 21.056 ] ] ] } },
{ "type": "Feature", "properties": { "cell_id": "C0527" }, "geometry": { "type": "Polygon", "coordinates": [ [ [ 78.969, 21.065 ], [ 78.969, 21.074 ], [ 78.96, 21.074 ], [ 78.96, 21.065 ], [ 78.969, 21.065 ] ] ] } },
{ "type": "Feature", "properties": { "cell_id": "C0487" }, "geometry": { "type": "Polygon", "coordinates": [ [ [ 78.969, 21.074 ], [ 78.969, 21.083 ], [ 78.96, 21.083 ], [ 78.96, 21.074 ], [ 78.969, 21.074 ] ] ] } },
{ "type": "Feature", "properties": { "cell_id": "C0467" }, "geometry": { "type": "Polygon", "coordinates": [ [ [ 78.969, 21.083 ], [ 78.969, 21.092 ], [ 78.96, 21.092 ], [ 78.96, 21.083 ], [ 78.969, 21.083 ] ] ] } },
{ "type": "Feature", "properties": { "cell_id": "C0508" }, "geometry": { "type": "Polygon", "coordinates": [ [ [ 78.969, 21.092 ], [ 78.969, 21.101 ], [ 78.96, 21.101 ], [ 78.96, 21.092 ], [ 78.969, 21.092 ] ] ] } },
{ "type": "Feature", "properties": { "cell_id": "C0528" }, "geometry": { "type": "Polygon", "coordinates": [ [ [ 78.969, 21.101 ], [ 78.969, 21.11 ], [ 78.96, 21.11 ], [ 78.96, 21.101 ], [ 78.969, 21.101 ] ] ] } },
{ "type": "Feature", "properties": { "cell_id": "C0468" }, "geometry": { "type": "Polygon", "coordinates": [ [ [ 78.969, 21.11 ], [ 78.969, 21.119 ], [ 78.96, 21.119 ], [ 78.96, 21.11 ], [ 78.969, 21.11 ] ] ] } },
{ "type": "Feature", "properties": { "cell_id": "C0488" }, "geometry": { "type": "Polygon", "coordinates": [ [ [ 78.969, 21.119 ], [ 78.969, 21.128 ], [ 78.96, 21.128 ], [ 78.96, 21.119 ], [ 78.969, 21.119 ] ] ] } },
{ "type": "Feature", "properties": { "cell_id": "C0529" }, "geometry": { "type": "Polygon", "coordinates": [ [ [ 78.969, 21.128 ], [ 78.969, 21.137 ], [ 78.96, 21.137 ], [ 78.96, 21.128 ], [ 78.969, 21.128 ] ] ] } },
{ "type": "Feature", "properties": { "cell_id": "C0469" }, "geometry": { "type": "Polygon", "coordinates": [ [ [ 78.969, 21.137 ], [ 78.969, 21.146 ], [ 78.96, 21.146 ], [ 78.96, 21.137 ], [ 78.969, 21.137 ] ] ] } },
{ "type": "Feature", "properties": { "cell_id": "C0509" }, "geometry": { "type": "Polygon", "coordinates": [ [ [ 78.969, 21.146 ], [ 78.969, 21.155 ], [ 78.96, 21.155 ], [ 78.96, 21.146 ], [ 78.969, 21.146 ] ] ] } },
{ "type": "Feature", "properties": { "cell_id": "C0489" }, "geometry": { "type": "Polygon", "coordinates": [ [ [ 78.969, 21.155 ], [ 78.969, 21.164 ], [ 78.96, 21.164 ], [ 78.96, 21.155 ], [ 78.969, 21.155 ] ] ] } },
{ "type": "Feature", "properties": { "cell_id": "C0204" }, "geometry": { "type": "Polygon", "coordinates": [ [ [ 78.969, 21.164 ], [ 78.969, 21.173 ], [ 78.96, 21.173 ], [ 78.96, 21.164 ], [ 78.969, 21.164 ] ] ] } },
{ "type": "Feature", "properties": { "cell_id": "C0205" }, "geometry": { "type": "Polygon", "coordinates": [ [ [ 78.969, 21.173 ], [ 78.969, 21.182 ], [ 78.96, 21.182 ], [ 78.96, 21.173 ], [ 78.969, 21.173 ] ] ] } },
{ "type": "Feature", "properties": { "cell_id": "C0207" }, "geometry": { "type": "Polygon", "coordinates": [ [ [ 78.969, 21.182 ], [ 78.969, 21.191 ], [ 78.96, 21.191 ], [ 78.96, 21.182 ], [ 78.969, 21.182 ] ] ] } },
{ "type": "Feature", "properties": { "cell_id": "C0320" }, "geometry": { "type": "Polygon", "coordinates": [ [ [ 78.969, 21.191 ], [ 78.969, 21.2 ], [ 78.96, 21.2 ], [ 78.96, 21.191 ], [ 78.969, 21.191 ] ] ] } },
{ "type": "Feature", "properties": { "cell_id": "C0300" }, "geometry": { "type": "Polygon", "coordinates": [ [ [ 78.969, 21.2 ], [ 78.969, 21.209 ], [ 78.96, 21.209 ], [ 78.96, 21.2 ], [ 78.969, 21.2 ] ] ] } },
{ "type": "Feature", "properties": { "cell_id": "C0301" }, "geometry": { "type": "Polygon", "coordinates": [ [ [ 78.969, 21.209 ], [ 78.969, 21.218 ], [ 78.96, 21.218 ], [ 78.96, 21.209 ], [ 78.969, 21.209 ] ] ] } },
{ "type": "Feature", "properties": { "cell_id": "C0321" }, "geometry": { "type": "Polygon", "coordinates": [ [ [ 78.969, 21.218 ], [ 78.969, 21.227 ], [ 78.96, 21.227 ], [ 78.96, 21.218 ], [ 78.969, 21.218 ] ] ] } },
{ "type": "Feature", "properties": { "cell_id": "C0341" }, "geometry": { "type": "Polygon", "coordinates": [ [ [ 78.969, 21.227 ], [ 78.969, 21.236 ], [ 78.96, 21.236 ], [ 78.96, 21.227 ], [ 78.969, 21.227 ] ] ] } },
{ "type": "Feature", "properties": { "cell_id": "C0280" }, "geometry": { "type": "Polygon", "coordinates": [ [ [ 78.969, 21.236 ], [ 78.969, 21.245 ], [ 78.96, 21.245 ], [ 78.96, 21.236 ], [ 78.969, 21.236 ] ] ] } },
{ "type": "Feature", "properties": { "cell_id": "C0281" }, "geometry": { "type": "Polygon", "coordinates": [ [ [ 78.969, 21.245 ], [ 78.969, 21.254 ], [ 78.96, 21.254 ], [ 78.96, 21.245 ], [ 78.969, 21.245 ] ] ] } },
{ "type": "Feature", "properties": { "cell_id": "C0222" }, "geometry": { "type": "Polygon", "coordinates": [ [ [ 78.969, 21.254 ], [ 78.969, 21.263 ], [ 78.96, 21.263 ], [ 78.96, 21.254 ], [ 78.969, 21.254 ] ] ] } },
{ "type": "Feature", "properties": { "cell_id": "C0282" }, "geometry": { "type": "Polygon", "coordinates": [ [ [ 78.978, 21.02 ], [ 78.978, 21.029 ], [ 78.969, 21.029 ], [ 78.969, 21.02 ], [ 78.978, 21.02 ] ] ] } },
{ "type": "Feature", "properties": { "cell_id": "C0262" }, "geometry": { "type": "Polygon", "coordinates": [ [ [ 78.978, 21.029 ], [ 78.978, 21.038 ], [ 78.969, 21.038 ], [ 78.969, 21.029 ], [ 78.978, 21.029 ] ] ] } },
{ "type": "Feature", "properties": { "cell_id": "C0242" }, "geometry": { "type": "Polygon", "coordinates": [ [ [ 78.978, 21.038 ], [ 78.978, 21.047 ], [ 78.969, 21.047 ], [ 78.969, 21.038 ], [ 78.978, 21.038 ] ] ] } },
{ "type": "Feature", "properties": { "cell_id": "C0322" }, "geometry": { "type": "Polygon", "coordinates": [ [ [ 78.978, 21.047 ], [ 78.978, 21.056 ], [ 78.969, 21.056 ], [ 78.969, 21.047 ], [ 78.978, 21.047 ] ] ] } },
{ "type": "Feature", "properties": { "cell_id": "C0342" }, "geometry": { "type": "Polygon", "coordinates": [ [ [ 78.978, 21.056 ], [ 78.978, 21.065 ], [ 78.969, 21.065 ], [ 78.969, 21.056 ], [ 78.978, 21.056 ] ] ] } },
{ "type": "Feature", "properties": { "cell_id": "C0302" }, "geometry": { "type": "Polygon", "coordinates": [ [ [ 78.978, 21.065 ], [ 78.978, 21.074 ], [ 78.969, 21.074 ], [ 78.969, 21.065 ], [ 78.978, 21.065 ] ] ] } },
{ "type": "Feature", "properties": { "cell_id": "C0363" }, "geometry": { "type": "Polygon", "coordinates": [ [ [ 78.978, 21.074 ], [ 78.978, 21.083 ], [ 78.969, 21.083 ], [ 78.969, 21.074 ], [ 78.978, 21.074 ] ] ] } },
{ "type": "Feature", "properties": { "cell_id": "C0303" }, "geometry": { "type": "Polygon", "coordinates": [ [ [ 78.978, 21.083 ], [ 78.978, 21.092 ], [ 78.969, 21.092 ], [ 78.969, 21.083 ], [ 78.978, 21.083 ] ] ] } },
{ "type": "Feature", "properties": { "cell_id": "C0343" }, "geometry": { "type": "Polygon", "coordinates": [ [ [ 78.978, 21.092 ], [ 78.978, 21.101 ], [ 78.969, 21.101 ], [ 78.969, 21.092 ], [ 78.978, 21.092 ] ] ] } },
{ "type": "Feature", "properties": { "cell_id": "C0323" }, "geometry": { "type": "Polygon", "coordinates": [ [ [ 78.978, 21.101 ], [ 78.978, 21.11 ], [ 78.969, 21.11 ], [ 78.969, 21.101 ], [ 78.978, 21.101 ] ] ] } },
{ "type": "Feature", "properties": { "cell_id": "C0364" }, "geometry": { "type": "Polygon", "coordinates": [ [ [ 78.978, 21.11 ], [ 78.978, 21.119 ], [ 78.969, 21.119 ], [ 78.969, 21.11 ], [ 78.978, 21.11 ] ] ] } },
{ "type": "Feature", "properties": { "cell_id": "C0344" }, "geometry": { "type": "Polygon", "coordinates": [ [ [ 78.978, 21.119 ], [ 78.978, 21.128 ], [ 78.969, 21.128 ], [ 78.969, 21.119 ], [ 78.978, 21.119 ] ] ] } },
{ "type": "Feature", "properties": { "cell_id": "C0304" }, "geometry": { "type": "Polygon", "coordinates": [ [ [ 78.978, 21.128 ], [ 78.978, 21.137 ], [ 78.969, 21.137 ], [ 78.969, 21.128 ], [ 78.978, 21.128 ] ] ] } },
{ "type": "Feature", "properties": { "cell_id": "C0383" }, "geometry": { "type": "Polygon", "coordinates": [ [ [ 78.978, 21.137 ], [ 78.978, 21.146 ], [ 78.969, 21.146 ], [ 78.969, 21.137 ], [ 78.978, 21.137 ] ] ] } },
{ "type": "Feature", "properties": { "cell_id": "C0423" }, "geometry": { "type": "Polygon", "coordinates": [ [ [ 78.978, 21.146 ], [ 78.978, 21.155 ], [ 78.969, 21.155 ], [ 78.969, 21.146 ], [ 78.978, 21.146 ] ] ] } },
{ "type": "Feature", "properties": { "cell_id": "C0403" }, "geometry": { "type": "Polygon", "coordinates": [ [ [ 78.978, 21.155 ], [ 78.978, 21.164 ], [ 78.969, 21.164 ], [ 78.969, 21.155 ], [ 78.978, 21.155 ] ] ] } },
{ "type": "Feature", "properties": { "cell_id": "C0424" }, "geometry": { "type": "Polygon", "coordinates": [ [ [ 78.978, 21.164 ], [ 78.978, 21.173 ], [ 78.969, 21.173 ], [ 78.969, 21.164 ], [ 78.978, 21.164 ] ] ] } },
{ "type": "Feature", "properties": { "cell_id": "C0404" }, "geometry": { "type": "Polygon", "coordinates": [ [ [ 78.978, 21.173 ], [ 78.978, 21.182 ], [ 78.969, 21.182 ], [ 78.969, 21.173 ], [ 78.978, 21.173 ] ] ] } },
{ "type": "Feature", "properties": { "cell_id": "C0384" }, "geometry": { "type": "Polygon", "coordinates": [ [ [ 78.978, 21.182 ], [ 78.978, 21.191 ], [ 78.969, 21.191 ], [ 78.969, 21.182 ], [ 78.978, 21.182 ] ] ] } },
{ "type": "Feature", "properties": { "cell_id": "C0425" }, "geometry": { "type": "Polygon", "coordinates": [ [ [ 78.978, 21.191 ], [ 78.978, 21.2 ], [ 78.969, 21.2 ], [ 78.969, 21.191 ], [ 78.978, 21.191 ] ] ] } },
{ "type": "Feature", "properties": { "cell_id": "C0223" }, "geometry": { "type": "Polygon", "coordinates": [ [ [ 78.978, 21.2 ], [ 78.978, 21.209 ], [ 78.969, 21.209 ], [ 78.969, 21.2 ], [ 78.978, 21.2 ] ] ] } },
{ "type": "Feature", "properties": { "cell_id": "C0283" }, "geometry": { "type": "Polygon", "coordinates": [ [ [ 78.978, 21.209 ], [ 78.978, 21.218 ], [ 78.969, 21.218 ], [ 78.969, 21.209 ], [ 78.978, 21.209 ] ] ] } },
{ "type": "Feature", "properties": { "cell_id": "C0263" }, "geometry": { "type": "Polygon", "coordinates": [ [ [ 78.978, 21.218 ], [ 78.978, 21.227 ], [ 78.969, 21.227 ], [ 78.969, 21.218 ], [ 78.978, 21.218 ] ] ] } },
{ "type": "Feature", "properties": { "cell_id": "C0243" }, "geometry": { "type": "Polygon", "coordinates": [ [ [ 78.978, 21.227 ], [ 78.978, 21.236 ], [ 78.969, 21.236 ], [ 78.969, 21.227 ], [ 78.978, 21.227 ] ] ] } },
{ "type": "Feature", "properties": { "cell_id": "C0264" }, "geometry": { "type": "Polygon", "coordinates": [ [ [ 78.978, 21.236 ], [ 78.978, 21.245 ], [ 78.969, 21.245 ], [ 78.969, 21.236 ], [ 78.978, 21.236 ] ] ] } },
{ "type": "Feature", "properties": { "cell_id": "C0244" }, "geometry": { "type": "Polygon", "coordinates": [ [ [ 78.978, 21.245 ], [ 78.978, 21.254 ], [ 78.969, 21.254 ], [ 78.969, 21.245 ], [ 78.978, 21.245 ] ] ] } },
{ "type": "Feature", "properties": { "cell_id": "C0284" }, "geometry": { "type": "Polygon", "coordinates": [ [ [ 78.978, 21.254 ], [ 78.978, 21.263 ], [ 78.969, 21.263 ], [ 78.969, 21.254 ], [ 78.978, 21.254 ] ] ] } },
{ "type": "Feature", "properties": { "cell_id": "C0224" }, "geometry": { "type": "Polygon", "coordinates": [ [ [ 78.987, 21.02 ], [ 78.987, 21.029 ], [ 78.978, 21.029 ], [ 78.978, 21.02 ], [ 78.987, 21.02 ] ] ] } },
{ "type": "Feature", "properties": { "cell_id": "C0265" }, "geometry": { "type": "Polygon", "coordinates": [ [ [ 78.987, 21.029 ], [ 78.987, 21.038 ], [ 78.978, 21.038 ], [ 78.978, 21.029 ], [ 78.987, 21.029 ] ] ] } },
{ "type": "Feature", "properties": { "cell_id": "C0245" }, "geometry": { "type": "Polygon", "coordinates": [ [ [ 78.987, 21.038 ], [ 78.987, 21.047 ], [ 78.978, 21.047 ], [ 78.978, 21.038 ], [ 78.987, 21.038 ] ] ] } },
{ "type": "Feature", "properties": { "cell_id": "C0324" }, "geometry": { "type": "Polygon", "coordinates": [ [ [ 78.987, 21.047 ], [ 78.987, 21.056 ], [ 78.978, 21.056 ], [ 78.978, 21.047 ], [ 78.987, 21.047 ] ] ] } },
{ "type": "Feature", "properties": { "cell_id": "C0325" }, "geometry": { "type": "Polygon", "coordinates": [ [ [ 78.987, 21.056 ], [ 78.987, 21.065 ], [ 78.978, 21.065 ], [ 78.978, 21.056 ], [ 78.987, 21.056 ] ] ] } },
{ "type": "Feature", "properties": { "cell_id": "C0345" }, "geometry": { "type": "Polygon", "coordinates": [ [ [ 78.987, 21.065 ], [ 78.987, 21.074 ], [ 78.978, 21.074 ], [ 78.978, 21.065 ], [ 78.987, 21.065 ] ] ] } },
{ "type": "Feature", "properties": { "cell_id": "C0365" }, "geometry": { "type": "Polygon", "coordinates": [ [ [ 78.987, 21.074 ], [ 78.987, 21.083 ], [ 78.978, 21.083 ], [ 78.978, 21.074 ], [ 78.987, 21.074 ] ] ] } },
{ "type": "Feature", "properties": { "cell_id": "C0305" }, "geometry": { "type": "Polygon", "coordinates": [ [ [ 78.987, 21.083 ], [ 78.987, 21.092 ], [ 78.978, 21.092 ], [ 78.978, 21.083 ], [ 78.987, 21.083 ] ] ] } },
{ "type": "Feature", "properties": { "cell_id": "C0326" }, "geometry": { "type": "Polygon", "coordinates": [ [ [ 78.987, 21.092 ], [ 78.987, 21.101 ], [ 78.978, 21.101 ], [ 78.978, 21.092 ], [ 78.987, 21.092 ] ] ] } },
{ "type": "Feature", "properties": { "cell_id": "C0306" }, "geometry": { "type": "Polygon", "coordinates": [ [ [ 78.987, 21.101 ], [ 78.987, 21.11 ], [ 78.978, 21.11 ], [ 78.978, 21.101 ], [ 78.987, 21.101 ] ] ] } },
{ "type": "Feature", "properties": { "cell_id": "C0366" }, "geometry": { "type": "Polygon", "coordinates": [ [ [ 78.987, 21.11 ], [ 78.987, 21.119 ], [ 78.978, 21.119 ], [ 78.978, 21.11 ], [ 78.987, 21.11 ] ] ] } },
{ "type": "Feature", "properties": { "cell_id": "C0346" }, "geometry": { "type": "Polygon", "coordinates": [ [ [ 78.987, 21.119 ], [ 78.987, 21.128 ], [ 78.978, 21.128 ], [ 78.978, 21.119 ], [ 78.987, 21.119 ] ] ] } },
{ "type": "Feature", "properties": { "cell_id": "C0327" }, "geometry": { "type": "Polygon", "coordinates": [ [ [ 78.987, 21.128 ], [ 78.987, 21.137 ], [ 78.978, 21.137 ], [ 78.978, 21.128 ], [ 78.987, 21.128 ] ] ] } },
{ "type": "Feature", "properties": { "cell_id": "C0285" }, "geometry": { "type": "Polygon", "coordinates": [ [ [ 78.987, 21.137 ], [ 78.987, 21.146 ], [ 78.978, 21.146 ], [ 78.978, 21.137 ], [ 78.987, 21.137 ] ] ] } },
{ "type": "Feature", "properties": { "cell_id": "C0225" }, "geometry": { "type": "Polygon", "coordinates": [ [ [ 78.987, 21.146 ], [ 78.987, 21.155 ], [ 78.978, 21.155 ], [ 78.978, 21.146 ], [ 78.987, 21.146 ] ] ] } },
{ "type": "Feature", "properties": { "cell_id": "C0226" }, "geometry": { "type": "Polygon", "coordinates": [ [ [ 78.987, 21.155 ], [ 78.987, 21.164 ], [ 78.978, 21.164 ], [ 78.978, 21.155 ], [ 78.987, 21.155 ] ] ] } },
{ "type": "Feature", "properties": { "cell_id": "C0266" }, "geometry": { "type": "Polygon", "coordinates": [ [ [ 78.987, 21.164 ], [ 78.987, 21.173 ], [ 78.978, 21.173 ], [ 78.978, 21.164 ], [ 78.987, 21.164 ] ] ] } },
{ "type": "Feature", "properties": { "cell_id": "C0286" }, "geometry": { "type": "Polygon", "coordinates": [ [ [ 78.987, 21.173 ], [ 78.987, 21.182 ], [ 78.978, 21.182 ], [ 78.978, 21.173 ], [ 78.987, 21.173 ] ] ] } },
{ "type": "Feature", "properties": { "cell_id": "C0246" }, "geometry": { "type": "Polygon", "coordinates": [ [ [ 78.987, 21.182 ], [ 78.987, 21.191 ], [ 78.978, 21.191 ], [ 78.978, 21.182 ], [ 78.987, 21.182 ] ] ] } },
{ "type": "Feature", "properties": { "cell_id": "C0227" }, "geometry": { "type": "Polygon", "coordinates": [ [ [ 78.987, 21.191 ], [ 78.987, 21.2 ], [ 78.978, 21.2 ], [ 78.978, 21.191 ], [ 78.987, 21.191 ] ] ] } },
{ "type": "Feature", "properties": { "cell_id": "C0287" }, "geometry": { "type": "Polygon", "coordinates": [ [ [ 78.987, 21.2 ], [ 78.987, 21.209 ], [ 78.978, 21.209 ], [ 78.978, 21.2 ], [ 78.987, 21.2 ] ] ] } },
{ "type": "Feature", "properties": { "cell_id": "C0247" }, "geometry": { "type": "Polygon", "coordinates": [ [ [ 78.987, 21.209 ], [ 78.987, 21.218 ], [ 78.978, 21.218 ], [ 78.978, 21.209 ], [ 78.987, 21.209 ] ] ] } },
{ "type": "Feature", "properties": { "cell_id": "C0267" }, "geometry": { "type": "Polygon", "coordinates": [ [ [ 78.987, 21.218 ], [ 78.987, 21.227 ], [ 78.978, 21.227 ], [ 78.978, 21.218 ], [ 78.987, 21.218 ] ] ] } },
{ "type": "Feature", "properties": { "cell_id": "C0385" }, "geometry": { "type": "Polygon", "coordinates": [ [ [ 78.987, 21.227 ], [ 78.987, 21.236 ], [ 78.978, 21.236 ], [ 78.978, 21.227 ], [ 78.987, 21.227 ] ] ] } },
{ "type": "Feature", "properties": { "cell_id": "C0405" }, "geometry": { "type": "Polygon", "coordinates": [ [ [ 78.987, 21.236 ], [ 78.987, 21.245 ], [ 78.978, 21.245 ], [ 78.978, 21.236 ], [ 78.987, 21.236 ] ] ] } },
{ "type": "Feature", "properties": { "cell_id": "C0445" }, "geometry": { "type": "Polygon", "coordinates": [ [ [ 78.987, 21.245 ], [ 78.987, 21.254 ], [ 78.978, 21.254 ], [ 78.978, 21.245 ], [ 78.987, 21.245 ] ] ] } },
{ "type": "Feature", "properties": { "cell_id": "C0426" }, "geometry": { "type": "Polygon", "coordinates": [ [ [ 78.987, 21.254 ], [ 78.987, 21.263 ], [ 78.978, 21.263 ], [ 78.978, 21.254 ], [ 78.987, 21.254 ] ] ] } },
{ "type": "Feature", "properties": { "cell_id": "C0386" }, "geometry": { "type": "Polygon", "coordinates": [ [ [ 78.996, 21.02 ], [ 78.996, 21.029 ], [ 78.987, 21.029 ], [ 78.987, 21.02 ], [ 78.996, 21.02 ] ] ] } },
{ "type": "Feature", "properties": { "cell_id": "C0446" }, "geometry": { "type": "Polygon", "coordinates": [ [ [ 78.996, 21.029 ], [ 78.996, 21.038 ], [ 78.987, 21.038 ], [ 78.987, 21.029 ], [ 78.996, 21.029 ] ] ] } },
{ "type": "Feature", "properties": { "cell_id": "C0406" }, "geometry": { "type": "Polygon", "coordinates": [ [ [ 78.996, 21.038 ], [ 78.996, 21.047 ], [ 78.987, 21.047 ], [ 78.987, 21.038 ], [ 78.996, 21.038 ] ] ] } },
{ "type": "Feature", "properties": { "cell_id": "C0447" }, "geometry": { "type": "Polygon", "coordinates": [ [ [ 78.996, 21.047 ], [ 78.996, 21.056 ], [ 78.987, 21.056 ], [ 78.987, 21.047 ], [ 78.996, 21.047 ] ] ] } },
{ "type": "Feature", "properties": { "cell_id": "C0407" }, "geometry": { "type": "Polygon", "coordinates": [ [ [ 78.996, 21.056 ], [ 78.996, 21.065 ], [ 78.987, 21.065 ], [ 78.987, 21.056 ], [ 78.996, 21.056 ] ] ] } },
{ "type": "Feature", "properties": { "cell_id": "C0427" }, "geometry": { "type": "Polygon", "coordinates": [ [ [ 78.996, 21.065 ], [ 78.996, 21.074 ], [ 78.987, 21.074 ], [ 78.987, 21.065 ], [ 78.996, 21.065 ] ] ] } },
{ "type": "Feature", "properties": { "cell_id": "C0387" }, "geometry": { "type": "Polygon", "coordinates": [ [ [ 78.996, 21.074 ], [ 78.996, 21.083 ], [ 78.987, 21.083 ], [ 78.987, 21.074 ], [ 78.996, 21.074 ] ] ] } },
{ "type": "Feature", "properties": { "cell_id": "C0388" }, "geometry": { "type": "Polygon", "coordinates": [ [ [ 78.996, 21.083 ], [ 78.996, 21.092 ], [ 78.987, 21.092 ], [ 78.987, 21.083 ], [ 78.996, 21.083 ] ] ] } },
{ "type": "Feature", "properties": { "cell_id": "C0428" }, "geometry": { "type": "Polygon", "coordinates": [ [ [ 78.996, 21.092 ], [ 78.996, 21.101 ], [ 78.987, 21.101 ], [ 78.987, 21.092 ], [ 78.996, 21.092 ] ] ] } },
{ "type": "Feature", "properties": { "cell_id": "C0408" }, "geometry": { "type": "Polygon", "coordinates": [ [ [ 78.996, 21.101 ], [ 78.996, 21.11 ], [ 78.987, 21.11 ], [ 78.987, 21.101 ], [ 78.996, 21.101 ] ] ] } },
{ "type": "Feature", "properties": { "cell_id": "C0448" }, "geometry": { "type": "Polygon", "coordinates": [ [ [ 78.996, 21.11 ], [ 78.996, 21.119 ], [ 78.987, 21.119 ], [ 78.987, 21.11 ], [ 78.996, 21.11 ] ] ] } },
{ "type": "Feature", "properties": { "cell_id": "C0429" }, "geometry": { "type": "Polygon", "coordinates": [ [ [ 78.996, 21.119 ], [ 78.996, 21.128 ], [ 78.987, 21.128 ], [ 78.987, 21.119 ], [ 78.996, 21.119 ] ] ] } },
{ "type": "Feature", "properties": { "cell_id": "C0409" }, "geometry": { "type": "Polygon", "coordinates": [ [ [ 78.996, 21.128 ], [ 78.996, 21.137 ], [ 78.987, 21.137 ], [ 78.987, 21.128 ], [ 78.996, 21.128 ] ] ] } },
{ "type": "Feature", "properties": { "cell_id": "C0449" }, "geometry": { "type": "Polygon", "coordinates": [ [ [ 78.996, 21.137 ], [ 78.996, 21.146 ], [ 78.987, 21.146 ], [ 78.987, 21.137 ], [ 78.996, 21.137 ] ] ] } },
{ "type": "Feature", "properties": { "cell_id": "C0389" }, "geometry": { "type": "Polygon", "coordinates": [ [ [ 78.996, 21.146 ], [ 78.996, 21.155 ], [ 78.987, 21.155 ], [ 78.987, 21.146 ], [ 78.996, 21.146 ] ] ] } },
{ "type": "Feature", "properties": { "cell_id": "C0450" }, "geometry": { "type": "Polygon", "coordinates": [ [ [ 78.996, 21.155 ], [ 78.996, 21.164 ], [ 78.987, 21.164 ], [ 78.987, 21.155 ], [ 78.996, 21.155 ] ] ] } },
{ "type": "Feature", "properties": { "cell_id": "C0347" }, "geometry": { "type": "Polygon", "coordinates": [ [ [ 78.996, 21.164 ], [ 78.996, 21.173 ], [ 78.987, 21.173 ], [ 78.987, 21.164 ], [ 78.996, 21.164 ] ] ] } },
{ "type": "Feature", "properties": { "cell_id": "C0367" }, "geometry": { "type": "Polygon", "coordinates": [ [ [ 78.996, 21.173 ], [ 78.996, 21.182 ], [ 78.987, 21.182 ], [ 78.987, 21.173 ], [ 78.996, 21.173 ] ] ] } },
{ "type": "Feature", "properties": { "cell_id": "C0307" }, "geometry": { "type": "Polygon", "coordinates": [ [ [ 78.996, 21.182 ], [ 78.996, 21.191 ], [ 78.987, 21.191 ], [ 78.987, 21.182 ], [ 78.996, 21.182 ] ] ] } },
{ "type": "Feature", "properties": { "cell_id": "C0328" }, "geometry": { "type": "Polygon", "coordinates": [ [ [ 78.996, 21.191 ], [ 78.996, 21.2 ], [ 78.987, 21.2 ], [ 78.987, 21.191 ], [ 78.996, 21.191 ] ] ] } },
{ "type": "Feature", "properties": { "cell_id": "C0368" }, "geometry": { "type": "Polygon", "coordinates": [ [ [ 78.996, 21.2 ], [ 78.996, 21.209 ], [ 78.987, 21.209 ], [ 78.987, 21.2 ], [ 78.996, 21.2 ] ] ] } },
{ "type": "Feature", "properties": { "cell_id": "C0348" }, "geometry": { "type": "Polygon", "coordinates": [ [ [ 78.996, 21.209 ], [ 78.996, 21.218 ], [ 78.987, 21.218 ], [ 78.987, 21.209 ], [ 78.996, 21.209 ] ] ] } },
{ "type": "Feature", "properties": { "cell_id": "C0369" }, "geometry": { "type": "Polygon", "coordinates": [ [ [ 78.996, 21.218 ], [ 78.996, 21.227 ], [ 78.987, 21.227 ], [ 78.987, 21.218 ], [ 78.996, 21.218 ] ] ] } },
{ "type": "Feature", "properties": { "cell_id": "C0349" }, "geometry": { "type": "Polygon", "coordinates": [ [ [ 78.996, 21.227 ], [ 78.996, 21.236 ], [ 78.987, 21.236 ], [ 78.987, 21.227 ], [ 78.996, 21.227 ] ] ] } },
{ "type": "Feature", "properties": { "cell_id": "C0329" }, "geometry": { "type": "Polygon", "coordinates": [ [ [ 78.996, 21.236 ], [ 78.996, 21.245 ], [ 78.987, 21.245 ], [ 78.987, 21.236 ], [ 78.996, 21.236 ] ] ] } },
{ "type": "Feature", "properties": { "cell_id": "C0330" }, "geometry": { "type": "Polygon", "coordinates": [ [ [ 78.996, 21.245 ], [ 78.996, 21.254 ], [ 78.987, 21.254 ], [ 78.987, 21.245 ], [ 78.996, 21.245 ] ] ] } },
{ "type": "Feature", "properties": { "cell_id": "C0308" }, "geometry": { "type": "Polygon", "coordinates": [ [ [ 78.996, 21.254 ], [ 78.996, 21.263 ], [ 78.987, 21.263 ], [ 78.987, 21.254 ], [ 78.996, 21.254 ] ] ] } },
{ "type": "Feature", "properties": { "cell_id": "C0288" }, "geometry": { "type": "Polygon", "coordinates": [ [ [ 79.005, 21.02 ], [ 79.005, 21.029 ], [ 78.996, 21.029 ], [ 78.996, 21.02 ], [ 79.005, 21.02 ] ] ] } },
{ "type": "Feature", "properties": { "cell_id": "C0268" }, "geometry": { "type": "Polygon", "coordinates": [ [ [ 79.005, 21.029 ], [ 79.005, 21.038 ], [ 78.996, 21.038 ], [ 78.996, 21.029 ], [ 79.005, 21.029 ] ] ] } },
{ "type": "Feature", "properties": { "cell_id": "C0248" }, "geometry": { "type": "Polygon", "coordinates": [ [ [ 79.005, 21.038 ], [ 79.005, 21.047 ], [ 78.996, 21.047 ], [ 78.996, 21.038 ], [ 79.005, 21.038 ] ] ] } },
{ "type": "Feature", "properties": { "cell_id": "C0249" }, "geometry": { "type": "Polygon", "coordinates": [ [ [ 79.005, 21.047 ], [ 79.005, 21.056 ], [ 78.996, 21.056 ], [ 78.996, 21.047 ], [ 79.005, 21.047 ] ] ] } },
{ "type": "Feature", "properties": { "cell_id": "C0289" }, "geometry": { "type": "Polygon", "coordinates": [ [ [ 79.005, 21.056 ], [ 79.005, 21.065 ], [ 78.996, 21.065 ], [ 78.996, 21.056 ], [ 79.005, 21.056 ] ] ] } },
{ "type": "Feature", "properties": { "cell_id": "C0269" }, "geometry": { "type": "Polygon", "coordinates": [ [ [ 79.005, 21.065 ], [ 79.005, 21.074 ], [ 78.996, 21.074 ], [ 78.996, 21.065 ], [ 79.005, 21.065 ] ] ] } },
{ "type": "Feature", "properties": { "cell_id": "C0309" }, "geometry": { "type": "Polygon", "coordinates": [ [ [ 79.005, 21.074 ], [ 79.005, 21.083 ], [ 78.996, 21.083 ], [ 78.996, 21.074 ], [ 79.005, 21.074 ] ] ] } },
{ "type": "Feature", "properties": { "cell_id": "C0250" }, "geometry": { "type": "Polygon", "coordinates": [ [ [ 79.005, 21.083 ], [ 79.005, 21.092 ], [ 78.996, 21.092 ], [ 78.996, 21.083 ], [ 79.005, 21.083 ] ] ] } },
{ "type": "Feature", "properties": { "cell_id": "C0310" }, "geometry": { "type": "Polygon", "coordinates": [ [ [ 79.005, 21.092 ], [ 79.005, 21.101 ], [ 78.996, 21.101 ], [ 78.996, 21.092 ], [ 79.005, 21.092 ] ] ] } },
{ "type": "Feature", "properties": { "cell_id": "C0370" }, "geometry": { "type": "Polygon", "coordinates": [ [ [ 79.005, 21.101 ], [ 79.005, 21.11 ], [ 78.996, 21.11 ], [ 78.996, 21.101 ], [ 79.005, 21.101 ] ] ] } },
{ "type": "Feature", "properties": { "cell_id": "C0350" }, "geometry": { "type": "Polygon", "coordinates": [ [ [ 79.005, 21.11 ], [ 79.005, 21.119 ], [ 78.996, 21.119 ], [ 78.996, 21.11 ], [ 79.005, 21.11 ] ] ] } },
{ "type": "Feature", "properties": { "cell_id": "C0391" }, "geometry": { "type": "Polygon", "coordinates": [ [ [ 79.005, 21.119 ], [ 79.005, 21.128 ], [ 78.996, 21.128 ], [ 78.996, 21.119 ], [ 79.005, 21.119 ] ] ] } },
{ "type": "Feature", "properties": { "cell_id": "C0331" }, "geometry": { "type": "Polygon", "coordinates": [ [ [ 79.005, 21.128 ], [ 79.005, 21.137 ], [ 78.996, 21.137 ], [ 78.996, 21.128 ], [ 79.005, 21.128 ] ] ] } },
{ "type": "Feature", "properties": { "cell_id": "C0371" }, "geometry": { "type": "Polygon", "coordinates": [ [ [ 79.005, 21.137 ], [ 79.005, 21.146 ], [ 78.996, 21.146 ], [ 78.996, 21.137 ], [ 79.005, 21.137 ] ] ] } },
{ "type": "Feature", "properties": { "cell_id": "C0351" }, "geometry": { "type": "Polygon", "coordinates": [ [ [ 79.005, 21.146 ], [ 79.005, 21.155 ], [ 78.996, 21.155 ], [ 78.996, 21.146 ], [ 79.005, 21.146 ] ] ] } },
{ "type": "Feature", "properties": { "cell_id": "C0352" }, "geometry": { "type": "Polygon", "coordinates": [ [ [ 79.005, 21.155 ], [ 79.005, 21.164 ], [ 78.996, 21.164 ], [ 78.996, 21.155 ], [ 79.005, 21.155 ] ] ] } },
{ "type": "Feature", "properties": { "cell_id": "C0392" }, "geometry": { "type": "Polygon", "coordinates": [ [ [ 79.005, 21.164 ], [ 79.005, 21.173 ], [ 78.996, 21.173 ], [ 78.996, 21.164 ], [ 79.005, 21.164 ] ] ] } },
{ "type": "Feature", "properties": { "cell_id": "C0332" }, "geometry": { "type": "Polygon", "coordinates": [ [ [ 79.005, 21.173 ], [ 79.005, 21.182 ], [ 78.996, 21.182 ], [ 78.996, 21.173 ], [ 79.005, 21.173 ] ] ] } },
{ "type": "Feature", "properties": { "cell_id": "C0372" }, "geometry": { "type": "Polygon", "coordinates": [ [ [ 79.005, 21.182 ], [ 79.005, 21.191 ], [ 78.996, 21.191 ], [ 78.996, 21.182 ], [ 79.005, 21.182 ] ] ] } },
{ "type": "Feature", "properties": { "cell_id": "C0430" }, "geometry": { "type": "Polygon", "coordinates": [ [ [ 79.005, 21.191 ], [ 79.005, 21.2 ], [ 78.996, 21.2 ], [ 78.996, 21.191 ], [ 79.005, 21.191 ] ] ] } },
{ "type": "Feature", "properties": { "cell_id": "C0390" }, "geometry": { "type": "Polygon", "coordinates": [ [ [ 79.005, 21.2 ], [ 79.005, 21.209 ], [ 78.996, 21.209 ], [ 78.996, 21.2 ], [ 79.005, 21.2 ] ] ] } },
{ "type": "Feature", "properties": { "cell_id": "C0410" }, "geometry": { "type": "Polygon", "coordinates": [ [ [ 79.005, 21.209 ], [ 79.005, 21.218 ], [ 78.996, 21.218 ], [ 78.996, 21.209 ], [ 79.005, 21.209 ] ] ] } },
{ "type": "Feature", "properties": { "cell_id": "C0431" }, "geometry": { "type": "Polygon", "coordinates": [ [ [ 79.005, 21.218 ], [ 79.005, 21.227 ], [ 78.996, 21.227 ], [ 78.996, 21.218 ], [ 79.005, 21.218 ] ] ] } },
{ "type": "Feature", "properties": { "cell_id": "C0411" }, "geometry": { "type": "Polygon", "coordinates": [ [ [ 79.005, 21.227 ], [ 79.005, 21.236 ], [ 78.996, 21.236 ], [ 78.996, 21.227 ], [ 79.005, 21.227 ] ] ] } },
{ "type": "Feature", "properties": { "cell_id": "C0451" }, "geometry": { "type": "Polygon", "coordinates": [ [ [ 79.005, 21.236 ], [ 79.005, 21.245 ], [ 78.996, 21.245 ], [ 78.996, 21.236 ], [ 79.005, 21.236 ] ] ] } },
{ "type": "Feature", "properties": { "cell_id": "C0472" }, "geometry": { "type": "Polygon", "coordinates": [ [ [ 79.005, 21.245 ], [ 79.005, 21.254 ], [ 78.996, 21.254 ], [ 78.996, 21.245 ], [ 79.005, 21.245 ] ] ] } },
{ "type": "Feature", "properties": { "cell_id": "C0412" }, "geometry": { "type": "Polygon", "coordinates": [ [ [ 79.005, 21.254 ], [ 79.005, 21.263 ], [ 78.996, 21.263 ], [ 78.996, 21.254 ], [ 79.005, 21.254 ] ] ] } },
{ "type": "Feature", "properties": { "cell_id": "C0452" }, "geometry": { "type": "Polygon", "coordinates": [ [ [ 79.014, 21.02 ], [ 79.014, 21.029 ], [ 79.005, 21.029 ], [ 79.005, 21.02 ], [ 79.014, 21.02 ] ] ] } },
{ "type": "Feature", "properties": { "cell_id": "C0432" }, "geometry": { "type": "Polygon", "coordinates": [ [ [ 79.014, 21.029 ], [ 79.014, 21.038 ], [ 79.005, 21.038 ], [ 79.005, 21.029 ], [ 79.014, 21.029 ] ] ] } },
{ "type": "Feature", "properties": { "cell_id": "C0290" }, "geometry": { "type": "Polygon", "coordinates": [ [ [ 79.014, 21.038 ], [ 79.014, 21.047 ], [ 79.005, 21.047 ], [ 79.005, 21.038 ], [ 79.014, 21.038 ] ] ] } },
{ "type": "Feature", "properties": { "cell_id": "C0270" }, "geometry": { "type": "Polygon", "coordinates": [ [ [ 79.014, 21.047 ], [ 79.014, 21.056 ], [ 79.005, 21.056 ], [ 79.005, 21.047 ], [ 79.014, 21.047 ] ] ] } },
{ "type": "Feature", "properties": { "cell_id": "C0251" }, "geometry": { "type": "Polygon", "coordinates": [ [ [ 79.014, 21.056 ], [ 79.014, 21.065 ], [ 79.005, 21.065 ], [ 79.005, 21.056 ], [ 79.014, 21.056 ] ] ] } },
{ "type": "Feature", "properties": { "cell_id": "C0311" }, "geometry": { "type": "Polygon", "coordinates": [ [ [ 79.014, 21.065 ], [ 79.014, 21.074 ], [ 79.005, 21.074 ], [ 79.005, 21.065 ], [ 79.014, 21.065 ] ] ] } },
{ "type": "Feature", "properties": { "cell_id": "C0271" }, "geometry": { "type": "Polygon", "coordinates": [ [ [ 79.014, 21.074 ], [ 79.014, 21.083 ], [ 79.005, 21.083 ], [ 79.005, 21.074 ], [ 79.014, 21.074 ] ] ] } },
{ "type": "Feature", "properties": { "cell_id": "C0291" }, "geometry": { "type": "Polygon", "coordinates": [ [ [ 79.014, 21.083 ], [ 79.014, 21.092 ], [ 79.005, 21.092 ], [ 79.005, 21.083 ], [ 79.014, 21.083 ] ] ] } },
{ "type": "Feature", "properties": { "cell_id": "C0252" }, "geometry": { "type": "Polygon", "coordinates": [ [ [ 79.014, 21.092 ], [ 79.014, 21.101 ], [ 79.005, 21.101 ], [ 79.005, 21.092 ], [ 79.014, 21.092 ] ] ] } },
{ "type": "Feature", "properties": { "cell_id": "C0312" }, "geometry": { "type": "Polygon", "coordinates": [ [ [ 79.014, 21.101 ], [ 79.014, 21.11 ], [ 79.005, 21.11 ], [ 79.005, 21.101 ], [ 79.014, 21.101 ] ] ] } },
{ "type": "Feature", "properties": { "cell_id": "C0292" }, "geometry": { "type": "Polygon", "coordinates": [ [ [ 79.014, 21.11 ], [ 79.014, 21.119 ], [ 79.005, 21.119 ], [ 79.005, 21.11 ], [ 79.014, 21.11 ] ] ] } },
{ "type": "Feature", "properties": { "cell_id": "C0272" }, "geometry": { "type": "Polygon", "coordinates": [ [ [ 79.014, 21.119 ], [ 79.014, 21.128 ], [ 79.005, 21.128 ], [ 79.005, 21.119 ], [ 79.014, 21.119 ] ] ] } },
{ "type": "Feature", "properties": { "cell_id": "C0353" }, "geometry": { "type": "Polygon", "coordinates": [ [ [ 79.014, 21.128 ], [ 79.014, 21.137 ], [ 79.005, 21.137 ], [ 79.005, 21.128 ], [ 79.014, 21.128 ] ] ] } },
{ "type": "Feature", "properties": { "cell_id": "C0393" }, "geometry": { "type": "Polygon", "coordinates": [ [ [ 79.014, 21.137 ], [ 79.014, 21.146 ], [ 79.005, 21.146 ], [ 79.005, 21.137 ], [ 79.014, 21.137 ] ] ] } },
{ "type": "Feature", "properties": { "cell_id": "C0333" }, "geometry": { "type": "Polygon", "coordinates": [ [ [ 79.014, 21.146 ], [ 79.014, 21.155 ], [ 79.005, 21.155 ], [ 79.005, 21.146 ], [ 79.014, 21.146 ] ] ] } },
{ "type": "Feature", "properties": { "cell_id": "C0373" }, "geometry": { "type": "Polygon", "coordinates": [ [ [ 79.014, 21.155 ], [ 79.014, 21.164 ], [ 79.005, 21.164 ], [ 79.005, 21.155 ], [ 79.014, 21.155 ] ] ] } },
{ "type": "Feature", "properties": { "cell_id": "C0354" }, "geometry": { "type": "Polygon", "coordinates": [ [ [ 79.014, 21.164 ], [ 79.014, 21.173 ], [ 79.005, 21.173 ], [ 79.005, 21.164 ], [ 79.014, 21.164 ] ] ] } },
{ "type": "Feature", "properties": { "cell_id": "C0394" }, "geometry": { "type": "Polygon", "coordinates": [ [ [ 79.014, 21.173 ], [ 79.014, 21.182 ], [ 79.005, 21.182 ], [ 79.005, 21.173 ], [ 79.014, 21.173 ] ] ] } },
{ "type": "Feature", "properties": { "cell_id": "C0334" }, "geometry": { "type": "Polygon", "coordinates": [ [ [ 79.014, 21.182 ], [ 79.014, 21.191 ], [ 79.005, 21.191 ], [ 79.005, 21.182 ], [ 79.014, 21.182 ] ] ] } },
{ "type": "Feature", "properties": { "cell_id": "C0374" }, "geometry": { "type": "Polygon", "coordinates": [ [ [ 79.014, 21.191 ], [ 79.014, 21.2 ], [ 79.005, 21.2 ], [ 79.005, 21.191 ], [ 79.014, 21.191 ] ] ] } },
{ "type": "Feature", "properties": { "cell_id": "C0375" }, "geometry": { "type": "Polygon", "coordinates": [ [ [ 79.014, 21.2 ], [ 79.014, 21.209 ], [ 79.005, 21.209 ], [ 79.005, 21.2 ], [ 79.014, 21.2 ] ] ] } },
{ "type": "Feature", "properties": { "cell_id": "C0355" }, "geometry": { "type": "Polygon", "coordinates": [ [ [ 79.014, 21.209 ], [ 79.014, 21.218 ], [ 79.005, 21.218 ], [ 79.005, 21.209 ], [ 79.014, 21.209 ] ] ] } },
{ "type": "Feature", "properties": { "cell_id": "C0313" }, "geometry": { "type": "Polygon", "coordinates": [ [ [ 79.014, 21.218 ], [ 79.014, 21.227 ], [ 79.005, 21.227 ], [ 79.005, 21.218 ], [ 79.014, 21.218 ] ] ] } },
{ "type": "Feature", "properties": { "cell_id": "C0293" }, "geometry": { "type": "Polygon", "coordinates": [ [ [ 79.014, 21.227 ], [ 79.014, 21.236 ], [ 79.005, 21.236 ], [ 79.005, 21.227 ], [ 79.014, 21.227 ] ] ] } },
{ "type": "Feature", "properties": { "cell_id": "C0253" }, "geometry": { "type": "Polygon", "coordinates": [ [ [ 79.014, 21.236 ], [ 79.014, 21.245 ], [ 79.005, 21.245 ], [ 79.005, 21.236 ], [ 79.014, 21.236 ] ] ] } },
{ "type": "Feature", "properties": { "cell_id": "C0273" }, "geometry": { "type": "Polygon", "coordinates": [ [ [ 79.014, 21.245 ], [ 79.014, 21.254 ], [ 79.005, 21.254 ], [ 79.005, 21.245 ], [ 79.014, 21.245 ] ] ] } },
{ "type": "Feature", "properties": { "cell_id": "C0274" }, "geometry": { "type": "Polygon", "coordinates": [ [ [ 79.014, 21.254 ], [ 79.014, 21.263 ], [ 79.005, 21.263 ], [ 79.005, 21.254 ], [ 79.014, 21.254 ] ] ] } },
{ "type": "Feature", "properties": { "cell_id": "C0314" }, "geometry": { "type": "Polygon", "coordinates": [ [ [ 79.023, 21.02 ], [ 79.023, 21.029 ], [ 79.014, 21.029 ], [ 79.014, 21.02 ], [ 79.023, 21.02 ] ] ] } },
{ "type": "Feature", "properties": { "cell_id": "C0294" }, "geometry": { "type": "Polygon", "coordinates": [ [ [ 79.023, 21.029 ], [ 79.023, 21.038 ], [ 79.014, 21.038 ], [ 79.014, 21.029 ], [ 79.023, 21.029 ] ] ] } },
{ "type": "Feature", "properties": { "cell_id": "C0275" }, "geometry": { "type": "Polygon", "coordinates": [ [ [ 79.023, 21.038 ], [ 79.023, 21.047 ], [ 79.014, 21.047 ], [ 79.014, 21.038 ], [ 79.023, 21.038 ] ] ] } },
{ "type": "Feature", "properties": { "cell_id": "C0295" }, "geometry": { "type": "Polygon", "coordinates": [ [ [ 79.023, 21.047 ], [ 79.023, 21.056 ], [ 79.014, 21.056 ], [ 79.014, 21.047 ], [ 79.023, 21.047 ] ] ] } },
{ "type": "Feature", "properties": { "cell_id": "C0453" }, "geometry": { "type": "Polygon", "coordinates": [ [ [ 79.023, 21.056 ], [ 79.023, 21.065 ], [ 79.014, 21.065 ], [ 79.014, 21.056 ], [ 79.023, 21.056 ] ] ] } },
{ "type": "Feature", "properties": { "cell_id": "C0473" }, "geometry": { "type": "Polygon", "coordinates": [ [ [ 79.023, 21.065 ], [ 79.023, 21.074 ], [ 79.014, 21.074 ], [ 79.014, 21.065 ], [ 79.023, 21.065 ] ] ] } },
{ "type": "Feature", "properties": { "cell_id": "C0433" }, "geometry": { "type": "Polygon", "coordinates": [ [ [ 79.023, 21.074 ], [ 79.023, 21.083 ], [ 79.014, 21.083 ], [ 79.014, 21.074 ], [ 79.023, 21.074 ] ] ] } },
{ "type": "Feature", "properties": { "cell_id": "C0413" }, "geometry": { "type": "Polygon", "coordinates": [ [ [ 79.023, 21.083 ], [ 79.023, 21.092 ], [ 79.014, 21.092 ], [ 79.014, 21.083 ], [ 79.023, 21.083 ] ] ] } },
{ "type": "Feature", "properties": { "cell_id": "C0474" }, "geometry": { "type": "Polygon", "coordinates": [ [ [ 79.023, 21.092 ], [ 79.023, 21.101 ], [ 79.014, 21.101 ], [ 79.014, 21.092 ], [ 79.023, 21.092 ] ] ] } },
{ "type": "Feature", "properties": { "cell_id": "C0454" }, "geometry": { "type": "Polygon", "coordinates": [ [ [ 79.023, 21.101 ], [ 79.023, 21.11 ], [ 79.014, 21.11 ], [ 79.014, 21.101 ], [ 79.023, 21.101 ] ] ] } },
{ "type": "Feature", "properties": { "cell_id": "C0434" }, "geometry": { "type": "Polygon", "coordinates": [ [ [ 79.023, 21.11 ], [ 79.023, 21.119 ], [ 79.014, 21.119 ], [ 79.014, 21.11 ], [ 79.023, 21.11 ] ] ] } },
{ "type": "Feature", "properties": { "cell_id": "C0414" }, "geometry": { "type": "Polygon", "coordinates": [ [ [ 79.023, 21.119 ], [ 79.023, 21.128 ], [ 79.014, 21.128 ], [ 79.014, 21.119 ], [ 79.023, 21.119 ] ] ] } },
{ "type": "Feature", "properties": { "cell_id": "C0455" }, "geometry": { "type": "Polygon", "coordinates": [ [ [ 79.023, 21.128 ], [ 79.023, 21.137 ], [ 79.014, 21.137 ], [ 79.014, 21.128 ], [ 79.023, 21.128 ] ] ] } },
{ "type": "Feature", "properties": { "cell_id": "C0475" }, "geometry": { "type": "Polygon", "coordinates": [ [ [ 79.023, 21.137 ], [ 79.023, 21.146 ], [ 79.014, 21.146 ], [ 79.014, 21.137 ], [ 79.023, 21.137 ] ] ] } },
{ "type": "Feature", "properties": { "cell_id": "C0395" }, "geometry": { "type": "Polygon", "coordinates": [ [ [ 79.023, 21.146 ], [ 79.023, 21.155 ], [ 79.014, 21.155 ], [ 79.014, 21.146 ], [ 79.023, 21.146 ] ] ] } },
{ "type": "Feature", "properties": { "cell_id": "C0335" }, "geometry": { "type": "Polygon", "coordinates": [ [ [ 79.023, 21.155 ], [ 79.023, 21.164 ], [ 79.014, 21.164 ], [ 79.014, 21.155 ], [ 79.023, 21.155 ] ] ] } },
{ "type": "Feature", "properties": { "cell_id": "C0376" }, "geometry": { "type": "Polygon", "coordinates": [ [ [ 79.023, 21.164 ], [ 79.023, 21.173 ], [ 79.014, 21.173 ], [ 79.014, 21.164 ], [ 79.023, 21.164 ] ] ] } },
{ "type": "Feature", "properties": { "cell_id": "C0356" }, "geometry": { "type": "Polygon", "coordinates": [ [ [ 79.023, 21.173 ], [ 79.023, 21.182 ], [ 79.014, 21.182 ], [ 79.014, 21.173 ], [ 79.023, 21.173 ] ] ] } },
{ "type": "Feature", "properties": { "cell_id": "C0396" }, "geometry": { "type": "Polygon", "coordinates": [ [ [ 79.023, 21.182 ], [ 79.023, 21.191 ], [ 79.014, 21.191 ], [ 79.014, 21.182 ], [ 79.023, 21.182 ] ] ] } },
{ "type": "Feature", "properties": { "cell_id": "C0397" }, "geometry": { "type": "Polygon", "coordinates": [ [ [ 79.023, 21.191 ], [ 79.023, 21.2 ], [ 79.014, 21.2 ], [ 79.014, 21.191 ], [ 79.023, 21.191 ] ] ] } },
{ "type": "Feature", "properties": { "cell_id": "C0377" }, "geometry": { "type": "Polygon", "coordinates": [ [ [ 79.023, 21.2 ], [ 79.023, 21.209 ], [ 79.014, 21.209 ], [ 79.014, 21.2 ], [ 79.023, 21.2 ] ] ] } },
{ "type": "Feature", "properties": { "cell_id": "C0315" }, "geometry": { "type": "Polygon", "coordinates": [ [ [ 79.023, 21.209 ], [ 79.023, 21.218 ], [ 79.014, 21.218 ], [ 79.014, 21.209 ], [ 79.023, 21.209 ] ] ] } },
{ "type": "Feature", "properties": { "cell_id": "C0276" }, "geometry": { "type": "Polygon", "coordinates": [ [ [ 79.023, 21.218 ], [ 79.023, 21.227 ], [ 79.014, 21.227 ], [ 79.014, 21.218 ], [ 79.023, 21.218 ] ] ] } },
{ "type": "Feature", "properties": { "cell_id": "C0296" }, "geometry": { "type": "Polygon", "coordinates": [ [ [ 79.023, 21.227 ], [ 79.023, 21.236 ], [ 79.014, 21.236 ], [ 79.014, 21.227 ], [ 79.023, 21.227 ] ] ] } },
{ "type": "Feature", "properties": { "cell_id": "C0316" }, "geometry": { "type": "Polygon", "coordinates": [ [ [ 79.023, 21.236 ], [ 79.023, 21.245 ], [ 79.014, 21.245 ], [ 79.014, 21.236 ], [ 79.023, 21.236 ] ] ] } },
{ "type": "Feature", "properties": { "cell_id": "C0549" }, "geometry": { "type": "Polygon", "coordinates": [ [ [ 79.023, 21.245 ], [ 79.023, 21.254 ], [ 79.014, 21.254 ], [ 79.014, 21.245 ], [ 79.023, 21.245 ] ] ] } },
{ "type": "Feature", "properties": { "cell_id": "C0490" }, "geometry": { "type": "Polygon", "coordinates": [ [ [ 79.023, 21.254 ], [ 79.023, 21.263 ], [ 79.014, 21.263 ], [ 79.014, 21.254 ], [ 79.023, 21.254 ] ] ] } },
{ "type": "Feature", "properties": { "cell_id": "C0550" }, "geometry": { "type": "Polygon", "coordinates": [ [ [ 79.032, 21.02 ], [ 79.032, 21.029 ], [ 79.023, 21.029 ], [ 79.023, 21.02 ], [ 79.032, 21.02 ] ] ] } },
{ "type": "Feature", "properties": { "cell_id": "C0470" }, "geometry": { "type": "Polygon", "coordinates": [ [ [ 79.032, 21.029 ], [ 79.032, 21.038 ], [ 79.023, 21.038 ], [ 79.023, 21.029 ], [ 79.032, 21.029 ] ] ] } },
{ "type": "Feature", "properties": { "cell_id": "C0510" }, "geometry": { "type": "Polygon", "coordinates": [ [ [ 79.032, 21.038 ], [ 79.032, 21.047 ], [ 79.023, 21.047 ], [ 79.023, 21.038 ], [ 79.032, 21.038 ] ] ] } },
{ "type": "Feature", "properties": { "cell_id": "C0530" }, "geometry": { "type": "Polygon", "coordinates": [ [ [ 79.032, 21.047 ], [ 79.032, 21.056 ], [ 79.023, 21.056 ], [ 79.023, 21.047 ], [ 79.032, 21.047 ] ] ] } },
{ "type": "Feature", "properties": { "cell_id": "C0511" }, "geometry": { "type": "Polygon", "coordinates": [ [ [ 79.032, 21.056 ], [ 79.032, 21.065 ], [ 79.023, 21.065 ], [ 79.023, 21.056 ], [ 79.032, 21.056 ] ] ] } },
{ "type": "Feature", "properties": { "cell_id": "C0471" }, "geometry": { "type": "Polygon", "coordinates": [ [ [ 79.032, 21.065 ], [ 79.032, 21.074 ], [ 79.023, 21.074 ], [ 79.023, 21.065 ], [ 79.032, 21.065 ] ] ] } },
{ "type": "Feature", "properties": { "cell_id": "C0491" }, "geometry": { "type": "Polygon", "coordinates": [ [ [ 79.032, 21.074 ], [ 79.032, 21.083 ], [ 79.023, 21.083 ], [ 79.023, 21.074 ], [ 79.032, 21.074 ] ] ] } },
{ "type": "Feature", "properties": { "cell_id": "C0531" }, "geometry": { "type": "Polygon", "coordinates": [ [ [ 79.032, 21.083 ], [ 79.032, 21.092 ], [ 79.023, 21.092 ], [ 79.023, 21.083 ], [ 79.032, 21.083 ] ] ] } },
{ "type": "Feature", "properties": { "cell_id": "C0532" }, "geometry": { "type": "Polygon", "coordinates": [ [ [ 79.032, 21.092 ], [ 79.032, 21.101 ], [ 79.023, 21.101 ], [ 79.023, 21.092 ], [ 79.032, 21.092 ] ] ] } },
{ "type": "Feature", "properties": { "cell_id": "C0551" }, "geometry": { "type": "Polygon", "coordinates": [ [ [ 79.032, 21.101 ], [ 79.032, 21.11 ], [ 79.023, 21.11 ], [ 79.023, 21.101 ], [ 79.032, 21.101 ] ] ] } },
{ "type": "Feature", "properties": { "cell_id": "C0552" }, "geometry": { "type": "Polygon", "coordinates": [ [ [ 79.032, 21.11 ], [ 79.032, 21.119 ], [ 79.023, 21.119 ], [ 79.023, 21.11 ], [ 79.032, 21.11 ] ] ] } },
{ "type": "Feature", "properties": { "cell_id": "C0553" }, "geometry": { "type": "Polygon", "coordinates": [ [ [ 79.032, 21.119 ], [ 79.032, 21.128 ], [ 79.023, 21.128 ], [ 79.023, 21.119 ], [ 79.032, 21.119 ] ] ] } },
{ "type": "Feature", "properties": { "cell_id": "C0512" }, "geometry": { "type": "Polygon", "coordinates": [ [ [ 79.032, 21.128 ], [ 79.032, 21.137 ], [ 79.023, 21.137 ], [ 79.023, 21.128 ], [ 79.032, 21.128 ] ] ] } },
{ "type": "Feature", "properties": { "cell_id": "C0492" }, "geometry": { "type": "Polygon", "coordinates": [ [ [ 79.032, 21.137 ], [ 79.032, 21.146 ], [ 79.023, 21.146 ], [ 79.023, 21.137 ], [ 79.032, 21.137 ] ] ] } },
{ "type": "Feature", "properties": { "cell_id": "C0513" }, "geometry": { "type": "Polygon", "coordinates": [ [ [ 79.032, 21.146 ], [ 79.032, 21.155 ], [ 79.023, 21.155 ], [ 79.023, 21.146 ], [ 79.032, 21.146 ] ] ] } },
{ "type": "Feature", "properties": { "cell_id": "C0533" }, "geometry": { "type": "Polygon", "coordinates": [ [ [ 79.032, 21.155 ], [ 79.032, 21.164 ], [ 79.023, 21.164 ], [ 79.023, 21.155 ], [ 79.032, 21.155 ] ] ] } },
{ "type": "Feature", "properties": { "cell_id": "C0493" }, "geometry": { "type": "Polygon", "coordinates": [ [ [ 79.032, 21.164 ], [ 79.032, 21.173 ], [ 79.023, 21.173 ], [ 79.023, 21.164 ], [ 79.032, 21.164 ] ] ] } },
{ "type": "Feature", "properties": { "cell_id": "C0514" }, "geometry": { "type": "Polygon", "coordinates": [ [ [ 79.032, 21.173 ], [ 79.032, 21.182 ], [ 79.023, 21.182 ], [ 79.023, 21.173 ], [ 79.032, 21.173 ] ] ] } },
{ "type": "Feature", "properties": { "cell_id": "C0534" }, "geometry": { "type": "Polygon", "coordinates": [ [ [ 79.032, 21.182 ], [ 79.032, 21.191 ], [ 79.023, 21.191 ], [ 79.023, 21.182 ], [ 79.032, 21.182 ] ] ] } },
{ "type": "Feature", "properties": { "cell_id": "C0494" }, "geometry": { "type": "Polygon", "coordinates": [ [ [ 79.032, 21.191 ], [ 79.032, 21.2 ], [ 79.023, 21.2 ], [ 79.023, 21.191 ], [ 79.032, 21.191 ] ] ] } },
{ "type": "Feature", "properties": { "cell_id": "C0228" }, "geometry": { "type": "Polygon", "coordinates": [ [ [ 79.032, 21.2 ], [ 79.032, 21.209 ], [ 79.023, 21.209 ], [ 79.023, 21.2 ], [ 79.032, 21.2 ] ] ] } },
{ "type": "Feature", "properties": { "cell_id": "C0208" }, "geometry": { "type": "Polygon", "coordinates": [ [ [ 79.032, 21.209 ], [ 79.032, 21.218 ], [ 79.023, 21.218 ], [ 79.023, 21.209 ], [ 79.032, 21.209 ] ] ] } },
{ "type": "Feature", "properties": { "cell_id": "C0229" }, "geometry": { "type": "Polygon", "coordinates": [ [ [ 79.032, 21.218 ], [ 79.032, 21.227 ], [ 79.023, 21.227 ], [ 79.023, 21.218 ], [ 79.032, 21.218 ] ] ] } },
{ "type": "Feature", "properties": { "cell_id": "C0209" }, "geometry": { "type": "Polygon", "coordinates": [ [ [ 79.032, 21.227 ], [ 79.032, 21.236 ], [ 79.023, 21.236 ], [ 79.023, 21.227 ], [ 79.032, 21.227 ] ] ] } },
{ "type": "Feature", "properties": { "cell_id": "C0210" }, "geometry": { "type": "Polygon", "coordinates": [ [ [ 79.032, 21.236 ], [ 79.032, 21.245 ], [ 79.023, 21.245 ], [ 79.023, 21.236 ], [ 79.032, 21.236 ] ] ] } },
{ "type": "Feature", "properties": { "cell_id": "C0190" }, "geometry": { "type": "Polygon", "coordinates": [ [ [ 79.032, 21.245 ], [ 79.032, 21.254 ], [ 79.023, 21.254 ], [ 79.023, 21.245 ], [ 79.032, 21.245 ] ] ] } },
{ "type": "Feature", "properties": { "cell_id": "C0230" }, "geometry": { "type": "Polygon", "coordinates": [ [ [ 79.032, 21.254 ], [ 79.032, 21.263 ], [ 79.023, 21.263 ], [ 79.023, 21.254 ], [ 79.032, 21.254 ] ] ] } },
{ "type": "Feature", "properties": { "cell_id": "C0231" }, "geometry": { "type": "Polygon", "coordinates": [ [ [ 79.041, 21.02 ], [ 79.041, 21.029 ], [ 79.032, 21.029 ], [ 79.032, 21.02 ], [ 79.041, 21.02 ] ] ] } },
{ "type": "Feature", "properties": { "cell_id": "C0211" }, "geometry": { "type": "Polygon", "coordinates": [ [ [ 79.041, 21.029 ], [ 79.041, 21.038 ], [ 79.032, 21.038 ], [ 79.032, 21.029 ], [ 79.041, 21.029 ] ] ] } },
{ "type": "Feature", "properties": { "cell_id": "C0191" }, "geometry": { "type": "Polygon", "coordinates": [ [ [ 79.041, 21.038 ], [ 79.041, 21.047 ], [ 79.032, 21.047 ], [ 79.032, 21.038 ], [ 79.041, 21.038 ] ] ] } },
{ "type": "Feature", "properties": { "cell_id": "C0232" }, "geometry": { "type": "Polygon", "coordinates": [ [ [ 79.041, 21.047 ], [ 79.041, 21.056 ], [ 79.032, 21.056 ], [ 79.032, 21.047 ], [ 79.041, 21.047 ] ] ] } },
{ "type": "Feature", "properties": { "cell_id": "C0212" }, "geometry": { "type": "Polygon", "coordinates": [ [ [ 79.041, 21.056 ], [ 79.041, 21.065 ], [ 79.032, 21.065 ], [ 79.032, 21.056 ], [ 79.041, 21.056 ] ] ] } },
{ "type": "Feature", "properties": { "cell_id": "C0192" }, "geometry": { "type": "Polygon", "coordinates": [ [ [ 79.041, 21.065 ], [ 79.041, 21.074 ], [ 79.032, 21.074 ], [ 79.032, 21.065 ], [ 79.041, 21.065 ] ] ] } },
{ "type": "Feature", "properties": { "cell_id": "C0233" }, "geometry": { "type": "Polygon", "coordinates": [ [ [ 79.041, 21.074 ], [ 79.041, 21.083 ], [ 79.032, 21.083 ], [ 79.032, 21.074 ], [ 79.041, 21.074 ] ] ] } },
{ "type": "Feature", "properties": { "cell_id": "C0435" }, "geometry": { "type": "Polygon", "coordinates": [ [ [ 79.041, 21.083 ], [ 79.041, 21.092 ], [ 79.032, 21.092 ], [ 79.032, 21.083 ], [ 79.041, 21.083 ] ] ] } },
{ "type": "Feature", "properties": { "cell_id": "C0415" }, "geometry": { "type": "Polygon", "coordinates": [ [ [ 79.041, 21.092 ], [ 79.041, 21.101 ], [ 79.032, 21.101 ], [ 79.032, 21.092 ], [ 79.041, 21.092 ] ] ] } },
{ "type": "Feature", "properties": { "cell_id": "C0416" }, "geometry": { "type": "Polygon", "coordinates": [ [ [ 79.041, 21.101 ], [ 79.041, 21.11 ], [ 79.032, 21.11 ], [ 79.032, 21.101 ], [ 79.041, 21.101 ] ] ] } },
{ "type": "Feature", "properties": { "cell_id": "C0436" }, "geometry": { "type": "Polygon", "coordinates": [ [ [ 79.041, 21.11 ], [ 79.041, 21.119 ], [ 79.032, 21.119 ], [ 79.032, 21.11 ], [ 79.041, 21.11 ] ] ] } },
{ "type": "Feature", "properties": { "cell_id": "C0398" }, "geometry": { "type": "Polygon", "coordinates": [ [ [ 79.041, 21.119 ], [ 79.041, 21.128 ], [ 79.032, 21.128 ], [ 79.032, 21.119 ], [ 79.041, 21.119 ] ] ] } },
{ "type": "Feature", "properties": { "cell_id": "C0378" }, "geometry": { "type": "Polygon", "coordinates": [ [ [ 79.041, 21.128 ], [ 79.041, 21.137 ], [ 79.032, 21.137 ], [ 79.032, 21.128 ], [ 79.041, 21.128 ] ] ] } }
]
}
